{
  "type": "FeatureCollection",
  "features": [
    {
      "type": "Feature",
      "properties": {
        "norad_id": 66611,
        "name": "STARLINK-35583",
        "group": "last-30-days",
        "lat": 15.75174363187299,
        "lon": -86.48526934846102,
        "alt_km": 441.4439136942801,
        "timestamp": "2025-12-26T18:39:30.995492+00:00",
        "meta_object_name": "STARLINK-35583",
        "meta_object_id": "2025-270Z",
        "meta_epoch": "2025-12-25T17:05:26.222784",
        "meta_mean_motion": 15.40757863,
        "meta_eccentricity": 6.595e-05,
        "meta_inclination": 43.0004,
        "meta_ra_of_asc_node": 117.2753,
        "meta_arg_of_pericenter": 326.6033,
        "meta_mean_anomaly": 33.4782,
        "meta_ephemeris_type": 0,
        "meta_classification_type": "U",
        "meta_norad_cat_id": 66611,
        "meta_element_set_no": 999,
        "meta_rev_at_epoch": 646,
        "meta_bstar": 0.001409315,
        "meta_mean_motion_dot": 0.00059138,
        "meta_mean_motion_ddot": 0,
        "tle_line1": "1 66611U 25270Z   25359.71210906  .00059138  00000+0  14093-2 0  9990",
        "tle_line2": "2 66611  43.0004 117.2753 0000659 326.6033  33.4782 15.40757863  6461"
      },
      "geometry": {
        "type": "Point",
        "coordinates": [
          -86.48526934846102,
          15.75174363187299
        ]
      }
    },
    {
      "type": "Feature",
      "properties": {
        "norad_id": 66612,
        "name": "STARLINK-36039",
        "group": "last-30-days",
        "lat": -42.922685842449035,
        "lon": 18.124821571092262,
        "alt_km": 445.9806636180738,
        "timestamp": "2025-12-26T18:39:30.995503+00:00",
        "meta_object_name": "STARLINK-36039",
        "meta_object_id": "2025-270AA",
        "meta_epoch": "2025-12-26T08:10:07.769280",
        "meta_mean_motion": 15.40773881,
        "meta_eccentricity": 0.00015633,
        "meta_inclination": 42.9999,
        "meta_ra_of_asc_node": 114.2604,
        "meta_arg_of_pericenter": 261.7567,
        "meta_mean_anomaly": 98.3112,
        "meta_ephemeris_type": 0,
        "meta_classification_type": "U",
        "meta_norad_cat_id": 66612,
        "meta_element_set_no": 999,
        "meta_rev_at_epoch": 644,
        "meta_bstar": 0.0014141467,
        "meta_mean_motion_dot": 0.00059376,
        "meta_mean_motion_ddot": 0,
        "tle_line1": "1 66612U 25270AA  25360.34036770  .00059376  00000+0  14141-2 0  9995",
        "tle_line2": "2 66612  42.9999 114.2604 0001563 261.7567  98.3112 15.40773881  6444"
      },
      "geometry": {
        "type": "Point",
        "coordinates": [
          18.124821571092262,
          -42.922685842449035
        ]
      }
    },
    {
      "type": "Feature",
      "properties": {
        "norad_id": 66613,
        "name": "STARLINK-36037",
        "group": "last-30-days",
        "lat": -39.15962107486411,
        "lon": 50.769909809089754,
        "alt_km": 445.815453569272,
        "timestamp": "2025-12-26T18:39:30.995513+00:00",
        "meta_object_name": "STARLINK-36037",
        "meta_object_id": "2025-270AB",
        "meta_epoch": "2025-12-26T08:03:40.501152",
        "meta_mean_motion": 15.40739356,
        "meta_eccentricity": 0.00018679,
        "meta_inclination": 43.0033,
        "meta_ra_of_asc_node": 114.2259,
        "meta_arg_of_pericenter": 269.5191,
        "meta_mean_anomaly": 90.5452,
        "meta_ephemeris_type": 0,
        "meta_classification_type": "U",
        "meta_norad_cat_id": 66613,
        "meta_element_set_no": 999,
        "meta_rev_at_epoch": 644,
        "meta_bstar": 0.0011510397,
        "meta_mean_motion_dot": 0.00048146,
        "meta_mean_motion_ddot": 0,
        "tle_line1": "1 66613U 25270AB  25360.33588543  .00048146  00000+0  11510-2 0  9995",
        "tle_line2": "2 66613  43.0033 114.2259 0001867 269.5191  90.5452 15.40739356  6448"
      },
      "geometry": {
        "type": "Point",
        "coordinates": [
          50.769909809089754,
          -39.15962107486411
        ]
      }
    },
    {
      "type": "Feature",
      "properties": {
        "norad_id": 66614,
        "name": "STARLINK-36040",
        "group": "last-30-days",
        "lat": 28.30384073751669,
        "lon": 146.71185162705123,
        "alt_km": 439.9145937341782,
        "timestamp": "2025-12-26T18:39:30.995523+00:00",
        "meta_object_name": "STARLINK-36040",
        "meta_object_id": "2025-270AC",
        "meta_epoch": "2025-12-26T09:08:00.228480",
        "meta_mean_motion": 15.4074557,
        "meta_eccentricity": 0.00045951,
        "meta_inclination": 43.0006,
        "meta_ra_of_asc_node": 113.6966,
        "meta_arg_of_pericenter": 300.1941,
        "meta_mean_anomaly": 59.846,
        "meta_ephemeris_type": 0,
        "meta_classification_type": "U",
        "meta_norad_cat_id": 66614,
        "meta_element_set_no": 999,
        "meta_rev_at_epoch": 629,
        "meta_bstar": 0.0011495123,
        "meta_mean_motion_dot": 0.00048103,
        "meta_mean_motion_ddot": 0,
        "tle_line1": "1 66614U 25270AC  25360.38055820  .00048103  00000+0  11495-2 0  9993",
        "tle_line2": "2 66614  43.0006 113.6966 0004595 300.1941  59.8460 15.40745570  6298"
      },
      "geometry": {
        "type": "Point",
        "coordinates": [
          146.71185162705123,
          28.30384073751669
        ]
      }
    },
    {
      "type": "Feature",
      "properties": {
        "norad_id": 66615,
        "name": "STARLINK-35988",
        "group": "last-30-days",
        "lat": -20.218870254521903,
        "lon": 88.30832048144417,
        "alt_km": 445.1819114272721,
        "timestamp": "2025-12-26T18:39:30.995534+00:00",
        "meta_object_name": "STARLINK-35988",
        "meta_object_id": "2025-270AD",
        "meta_epoch": "2025-12-25T16:20:27.897216",
        "meta_mean_motion": 15.40700329,
        "meta_eccentricity": 0.00016951,
        "meta_inclination": 43.0013,
        "meta_ra_of_asc_node": 117.9088,
        "meta_arg_of_pericenter": 260.634,
        "meta_mean_anomaly": 99.4325,
        "meta_ephemeris_type": 0,
        "meta_classification_type": "U",
        "meta_norad_cat_id": 66615,
        "meta_element_set_no": 999,
        "meta_rev_at_epoch": 618,
        "meta_bstar": 0.0010609961,
        "meta_mean_motion_dot": 0.00044275,
        "meta_mean_motion_ddot": 0,
        "tle_line1": "1 66615U 25270AD  25359.68087844  .00044275  00000+0  10610-2 0  9990",
        "tle_line2": "2 66615  43.0013 117.9088 0001695 260.6340  99.4325 15.40700329  6181"
      },
      "geometry": {
        "type": "Point",
        "coordinates": [
          88.30832048144417,
          -20.218870254521903
        ]
      }
    },
    {
      "type": "Feature",
      "properties": {
        "norad_id": 66616,
        "name": "STARLINK-35391",
        "group": "last-30-days",
        "lat": 39.50381633149131,
        "lon": 173.56956760481927,
        "alt_km": 438.42163406823875,
        "timestamp": "2025-12-26T18:39:30.995544+00:00",
        "meta_object_name": "STARLINK-35391",
        "meta_object_id": "2025-270AE",
        "meta_epoch": "2025-12-26T09:01:32.767680",
        "meta_mean_motion": 15.40703941,
        "meta_eccentricity": 0.00012195,
        "meta_inclination": 42.9996,
        "meta_ra_of_asc_node": 113.6621,
        "meta_arg_of_pericenter": 233.5033,
        "meta_mean_anomaly": 126.5712,
        "meta_ephemeris_type": 0,
        "meta_classification_type": "U",
        "meta_norad_cat_id": 66616,
        "meta_element_set_no": 999,
        "meta_rev_at_epoch": 656,
        "meta_bstar": 0.0013296463,
        "meta_mean_motion_dot": 0.00055652,
        "meta_mean_motion_ddot": 0,
        "tle_line1": "1 66616U 25270AE  25360.37607370  .00055652  00000+0  13296-2 0  9995",
        "tle_line2": "2 66616  42.9996 113.6621 0001219 233.5033 126.5712 15.40703941  6563"
      },
      "geometry": {
        "type": "Point",
        "coordinates": [
          173.56956760481927,
          39.50381633149131
        ]
      }
    },
    {
      "type": "Feature",
      "properties": {
        "norad_id": 66617,
        "name": "STARLINK-35940",
        "group": "last-30-days",
        "lat": -50.333789406910896,
        "lon": 5.637773835542095,
        "alt_km": 452.4963432459099,
        "timestamp": "2025-12-26T18:39:30.995554+00:00",
        "meta_object_name": "STARLINK-35940",
        "meta_object_id": "2025-271A",
        "meta_epoch": "2025-12-25T15:04:28.881120",
        "meta_mean_motion": 15.39600088,
        "meta_eccentricity": 0.0001206,
        "meta_inclination": 53.1613,
        "meta_ra_of_asc_node": 126.3554,
        "meta_arg_of_pericenter": 97.0516,
        "meta_mean_anomaly": 263.0626,
        "meta_ephemeris_type": 0,
        "meta_classification_type": "U",
        "meta_norad_cat_id": 66617,
        "meta_element_set_no": 999,
        "meta_rev_at_epoch": 619,
        "meta_bstar": 0.0010268,
        "meta_mean_motion_dot": 0.00040863,
        "meta_mean_motion_ddot": 0,
        "tle_line1": "1 66617U 25271A   25359.62811205  .00040863  00000+0  10268-2 0  9991",
        "tle_line2": "2 66617  53.1613 126.3554 0001206  97.0516 263.0626 15.39600088  6191"
      },
      "geometry": {
        "type": "Point",
        "coordinates": [
          5.637773835542095,
          -50.333789406910896
        ]
      }
    }
  ]
}